APRIZESAT 2             
1 28366U 04025A   26168.42387750  .00000120  00000+0  50852-4 0  9991
2 28366  98.1014 334.3908 0104347 249.1238 109.8754 14.38035860151670
SAUDICOMSAT 1           
1 28369U 04025D   26168.49746812  .00000289  00000+0  77390-4 0  9991
2 28369  98.5771 178.6372 0032618  24.7481 335.5271 14.55473999164178
SAUDICOMSAT 2           
1 28370U 04025E   26168.53915103  .00000181  00000+0  58774-4 0  9995
2 28370  98.6640 180.7954 0054175 258.3949 101.1160 14.49981400160154
APRIZESAT 1             
1 28372U 04025G   26168.50146701  .00000174  00000+0  54794-4 0  9994
2 28372  98.6303 179.2356 0045135 152.9100 207.4464 14.51777129161955
NANOSAT-1               
1 28493U 04049B   26168.57470050  .00000800  00000+0  11273-3 0  9998
2 28493  98.2277 305.2451 0002819 300.7526  59.3407 14.80160166155503
SAUDICOMSAT 7           
1 31119U 07012C   26168.45401409  .00000336  00000+0  69415-4 0  9995
2 31119  98.3778 142.5912 0055310 194.3483 165.6152 14.66110404 22477
SAUDICOMSAT 6           
1 31121U 07012E   26167.88503992  .00000484  00000+0  10225-3 0  9992
2 31121  98.4098 135.3957 0071073 328.7254  30.9728 14.62558113 20142
SAUDICOMSAT 5           
1 31124U 07012H   26168.49524649  .00000500  00000+0  94594-4 0  9996
2 31124  98.3489 143.3803 0048477 123.7495 236.8341 14.68156678 23641
SAUDICOMSAT 3           
1 31125U 07012J   26167.91100322  .00000705  00000+0  12308-3 0  9990
2 31125  98.3143 143.3325 0040252  54.0890 306.4041 14.70705411 24781
SAUDICOMSAT 4           
1 31127U 07012L   26167.88135730  .00000361  00000+0  76313-4 0  9994
2 31127  98.3983 140.4456 0062064 259.1992 100.2220 14.64512027 21243
APRIZESAT 4             
1 35684U 09041D   26168.12218179  .00000548  00000+0  72133-4 0  9990
2 35684  98.1413 243.4414 0042406 323.2689  36.5620 14.83879249911351
APRIZESAT 3             
1 35686U 09041F   26168.36647334  .00001525  00000+0  13572-3 0  9994
2 35686  98.2062 321.5987 0062791  67.1799 293.6036 14.96242028916403
S-NET D                 
1 43186U 18014G   26168.52785576  .00003910  00000+0  20302-3 0  9996
2 43186  97.5361  73.3166 0008911  29.5505 330.6230 15.16676161458819
S-NET B                 
1 43187U 18014H   26168.27540893  .00004191  00000+0  21753-3 0  9993
2 43187  97.5368  73.0524 0009406  25.1110 335.0578 15.16643884458771
S-NET A                 
1 43188U 18014J   26167.80100387  .00004229  00000+0  21925-3 0  9995
2 43188  97.5381  72.7895 0009364  27.3118 332.8605 15.16678733458709
S-NET C                 
1 43189U 18014K   26168.41123988  .00004267  00000+0  22140-3 0  9998
2 43189  97.5396  73.4708 0010426  17.0122 343.1458 15.16636851457344
SALSAT                  
1 46495U 20068K   26168.53797512  .00006219  00000+0  21821-3 0  9990
2 46495  97.8847 171.6239 0008040 306.6544  53.3955 15.29803905315418
OOV-CUBE (TUBSAT-30)    
1 60240U 24128F   26168.58778461  .00001484  00000+0  12396-3 0  9998
2 60240  61.9933 224.1762 0044589 133.8534 226.6256 15.02774856106175
LPNTSAT-001 (IOD-1)     
1 68408U 26065A   26168.60392418  .00002280  00000+0  11336-3 0  9999
2 68408  97.4013  49.1049 0016616   9.3580 350.7960 15.18539953 12321
